GLOBALSTAR M070         
1 32264U 07048B   24153.61041625 -.00000069  00000+0  19475-3 0  9990
2 32264  51.9731 207.8720 0000112  51.6956 106.2614 12.62293783765604
GLOBALSTAR M068         
1 32266U 07048D   24152.97449880 -.00000055  00000+0  26948-3 0  9993
2 32266  51.9907  24.2877 0001540  46.3955  60.1795 12.62790761769397
GLOBALSTAR M079         
1 37188U 10054A   24153.38533271 -.00000094  00000+0  56296-4 0  9999
2 37188  52.0027 219.0088 0000518 160.2037 280.7148 12.62270707628365
GLOBALSTAR M074         
1 37189U 10054B   24153.58497287 -.00000083  00000+0  11558-3 0  9997
2 37189  52.0002 217.7833 0000299 142.6816   5.0589 12.62269419629060
GLOBALSTAR M076         
1 37190U 10054C   24153.52325302 -.00000084  00000+0  11275-3 0  9998
2 37190  52.0014 218.1051 0000506 202.8102 266.0108 12.62261849628705
GLOBALSTAR M077         
1 37191U 10054D   24153.26661175 -.00000095  00000+0  51407-4 0  9995
2 37191  52.0044 175.6341 0000050 350.4956  90.3591 12.62273737629040
